[{"CCSDS_OMM_VERS":"3.0","COMMENT":"GENERATED VIA SPACE-TRACK.ORG API","CREATION_DATE":"2026-05-16T17:43:08","ORIGINATOR":"18 SPCS","OBJECT_NAME":"THOR ABLESTAR DEB","OBJECT_ID":"1961-015FQ","CENTER_NAME":"EARTH","REF_FRAME":"TEME","TIME_SYSTEM":"UTC","MEAN_ELEMENT_THEORY":"SGP4","EPOCH":"2026-05-16T07:44:44.396448","MEAN_MOTION":"14.95918674","ECCENTRICITY":"0.00331569","INCLINATION":"66.0577","RA_OF_ASC_NODE":"260.4505","ARG_OF_PERICENTER":"314.2103","MEAN_ANOMALY":"45.6300","EPHEMERIS_TYPE":"0","CLASSIFICATION_TYPE":"U","NORAD_CAT_ID":"478","ELEMENT_SET_NO":"999","REV_AT_EPOCH":"37942","BSTAR":"0.00091692689000","MEAN_MOTION_DOT":"0.00010279","MEAN_MOTION_DDOT":"0.0000000000000","SEMIMAJOR_AXIS":"6957.660","PERIOD":"96.262","APOAPSIS":"602.594","PERIAPSIS":"556.455","OBJECT_TYPE":"DEBRIS","RCS_SIZE":"SMALL","COUNTRY_CODE":"US","LAUNCH_DATE":"1961-06-29","SITE":"AFETR","DECAY_DATE":null,"FILE":"5196581","GP_ID":"323457192","TLE_LINE0":"0 THOR ABLESTAR DEB","TLE_LINE1":"1 00478U 61015FQ  26136.32273607  .00010279  00000-0  91693-3 0  9990","TLE_LINE2":"2 00478  66.0577 260.4505 0033157 314.2103  45.6300 14.95918674379424"},{"CCSDS_OMM_VERS":"3.0","COMMENT":"GENERATED VIA SPACE-TRACK.ORG API","CREATION_DATE":"2026-05-16T19:06:30","ORIGINATOR":"18 SPCS","OBJECT_NAME":"THOR ABLESTAR DEB","OBJECT_ID":"1961-015FS","CENTER_NAME":"EARTH","REF_FRAME":"TEME","TIME_SYSTEM":"UTC","MEAN_ELEMENT_THEORY":"SGP4","EPOCH":"2026-05-16T09:54:13.661568","MEAN_MOTION":"14.42211121","ECCENTRICITY":"0.00739460","INCLINATION":"66.2349","RA_OF_ASC_NODE":"147.6412","ARG_OF_PERICENTER":"168.0973","MEAN_ANOMALY":"192.1898","EPHEMERIS_TYPE":"0","CLASSIFICATION_TYPE":"U","NORAD_CAT_ID":"480","ELEMENT_SET_NO":"999","REV_AT_EPOCH":"35023","BSTAR":"0.00027757000000","MEAN_MOTION_DOT":"0.00000851","MEAN_MOTION_DDOT":"0.0000000000000","SEMIMAJOR_AXIS":"7129.339","PERIOD":"99.847","APOAPSIS":"803.923","PERIAPSIS":"698.486","OBJECT_TYPE":"DEBRIS","RCS_SIZE":"SMALL","COUNTRY_CODE":"US","LAUNCH_DATE":"1961-06-29","SITE":"AFETR","DECAY_DATE":null,"FILE":"5196639","GP_ID":"323491938","TLE_LINE0":"0 THOR ABLESTAR DEB","TLE_LINE1":"1   480U 61015FS  26136.41265812  .00000851  00000-0  27757-3 0  9997","TLE_LINE2":"2   480  66.2349 147.6412 0073946 168.0973 192.1898 14.42211121350232"},{"CCSDS_OMM_VERS":"3.0","COMMENT":"GENERATED VIA SPACE-TRACK.ORG API","CREATION_DATE":"2026-05-16T17:43:08","ORIGINATOR":"18 SPCS","OBJECT_NAME":"RELAY 1 (A-15)","OBJECT_ID":"1962-068A","CENTER_NAME":"EARTH","REF_FRAME":"TEME","TIME_SYSTEM":"UTC","MEAN_ELEMENT_THEORY":"SGP4","EPOCH":"2026-05-16T15:15:26.213184","MEAN_MOTION":"7.78167019","ECCENTRICITY":"0.28364809","INCLINATION":"47.4965","RA_OF_ASC_NODE":"105.6169","ARG_OF_PERICENTER":"180.2018","MEAN_ANOMALY":"354.8288","EPHEMERIS_TYPE":"0","CLASSIFICATION_TYPE":"U","NORAD_CAT_ID":"503","ELEMENT_SET_NO":"999","REV_AT_EPOCH":"80302","BSTAR":"0.00000000000000","MEAN_MOTION_DOT":"-0.00000022","MEAN_MOTION_DDOT":"0.0000000000000","SEMIMAJOR_AXIS":"10756.888","PERIOD":"185.050","APOAPSIS":"7429.923","PERIAPSIS":"1327.582","OBJECT_TYPE":"PAYLOAD","RCS_SIZE":"MEDIUM","COUNTRY_CODE":"US","LAUNCH_DATE":"1962-12-13","SITE":"AFETR","DECAY_DATE":null,"FILE":"5196581","GP_ID":"323457193","TLE_LINE0":"0 RELAY 1 (A-15)","TLE_LINE1":"1 00503U 62068A   26136.63572006 -.00000022  00000-0  00000-0 0  9992","TLE_LINE2":"2 00503  47.4965 105.6169 2836481 180.2018 354.8288  7.78167019803022"},{"CCSDS_OMM_VERS":"3.0","COMMENT":"GENERATED VIA SPACE-TRACK.ORG API","CREATION_DATE":"2026-05-16T19:46:19","ORIGINATOR":"18 SPCS","OBJECT_NAME":"EXPLORER 16","OBJECT_ID":"1962-070A","CENTER_NAME":"EARTH","REF_FRAME":"TEME","TIME_SYSTEM":"UTC","MEAN_ELEMENT_THEORY":"SGP4","EPOCH":"2026-05-16T11:49:33.726144","MEAN_MOTION":"13.85787406","ECCENTRICITY":"0.02755280","INCLINATION":"52.0020","RA_OF_ASC_NODE":"186.1276","ARG_OF_PERICENTER":"239.1236","MEAN_ANOMALY":"118.2323","EPHEMERIS_TYPE":"0","CLASSIFICATION_TYPE":"U","NORAD_CAT_ID":"506","ELEMENT_SET_NO":"999","REV_AT_EPOCH":"20436","BSTAR":"0.00006848100000","MEAN_MOTION_DOT":"-0.00000038","MEAN_MOTION_DDOT":"0.0000000000000","SEMIMAJOR_AXIS":"7321.568","PERIOD":"103.912","APOAPSIS":"1145.163","PERIAPSIS":"741.703","OBJECT_TYPE":"PAYLOAD","RCS_SIZE":"MEDIUM","COUNTRY_CODE":"US","LAUNCH_DATE":"1962-12-16","SITE":"WLPIS","DECAY_DATE":null,"FILE":"5196659","GP_ID":"323492693","TLE_LINE0":"0 EXPLORER 16","TLE_LINE1":"1   506U 62070A   26136.49275146 -.00000038  00000-0  68481-4 0  9995","TLE_LINE2":"2   506  52.0020 186.1276 0275528 239.1236 118.2323 13.85787406204362"},{"CCSDS_OMM_VERS":"3.0","COMMENT":"GENERATED VIA SPACE-TRACK.ORG API","CREATION_DATE":"2026-05-16T17:43:08","ORIGINATOR":"18 SPCS","OBJECT_NAME":"THOR AGENA B DEB","OBJECT_ID":"1962-049C","CENTER_NAME":"EARTH","REF_FRAME":"TEME","TIME_SYSTEM":"UTC","MEAN_ELEMENT_THEORY":"SGP4","EPOCH":"2026-05-16T14:37:25.262688","MEAN_MOTION":"13.70065808","ECCENTRICITY":"0.00155219","INCLINATION":"80.5154","RA_OF_ASC_NODE":"356.7079","ARG_OF_PERICENTER":"170.2184","MEAN_ANOMALY":"219.0418","EPHEMERIS_TYPE":"0","CLASSIFICATION_TYPE":"U","NORAD_CAT_ID":"510","ELEMENT_SET_NO":"999","REV_AT_EPOCH":"17834","BSTAR":"0.00006619226100","MEAN_MOTION_DOT":"0.00000067","MEAN_MOTION_DDOT":"0.0000000000000","SEMIMAJOR_AXIS":"7377.472","PERIOD":"105.104","APOAPSIS":"1010.788","PERIAPSIS":"987.886","OBJECT_TYPE":"DEBRIS","RCS_SIZE":"SMALL","COUNTRY_CODE":"US","LAUNCH_DATE":"1962-09-29","SITE":"AFWTR","DECAY_DATE":null,"FILE":"5196581","GP_ID":"323457194","TLE_LINE0":"0 THOR AGENA B DEB","TLE_LINE1":"1 00510U 62049C   26136.60932017  .00000067  00000-0  66192-4 0  9994","TLE_LINE2":"2 00510  80.5154 356.7079 0015522 170.2184 219.0418 13.70065808178342"},{"CCSDS_OMM_VERS":"3.0","COMMENT":"GENERATED VIA SPACE-TRACK.ORG API","CREATION_DATE":"2026-05-16T19:46:19","ORIGINATOR":"18 SPCS","OBJECT_NAME":"THOR AGENA B DEB","OBJECT_ID":"1962-049D","CENTER_NAME":"EARTH","REF_FRAME":"TEME","TIME_SYSTEM":"UTC","MEAN_ELEMENT_THEORY":"SGP4","EPOCH":"2026-05-16T12:37:05.375424","MEAN_MOTION":"13.68563167","ECCENTRICITY":"0.00321410","INCLINATION":"80.4291","RA_OF_ASC_NODE":"223.2906","ARG_OF_PERICENTER":"59.6819","MEAN_ANOMALY":"312.7811","EPHEMERIS_TYPE":"0","CLASSIFICATION_TYPE":"U","NORAD_CAT_ID":"511","ELEMENT_SET_NO":"999","REV_AT_EPOCH":"17525","BSTAR":"0.00005853100000","MEAN_MOTION_DOT":"0.00000059","MEAN_MOTION_DDOT":"0.0000000000000","SEMIMAJOR_AXIS":"7382.871","PERIOD":"105.220","APOAPSIS":"1028.465","PERIAPSIS":"981.007","OBJECT_TYPE":"DEBRIS","RCS_SIZE":"SMALL","COUNTRY_CODE":"US","LAUNCH_DATE":"1962-09-29","SITE":"AFWTR","DECAY_DATE":null,"FILE":"5196659","GP_ID":"323492194","TLE_LINE0":"0 THOR AGENA B DEB","TLE_LINE1":"1   511U 62049D   26136.52575666  .00000059  00000-0  58531-4 0  9998","TLE_LINE2":"2   511  80.4291 223.2906 0032141  59.6819 312.7811 13.68563167175255"},{"CCSDS_OMM_VERS":"3.0","COMMENT":"GENERATED VIA SPACE-TRACK.ORG API","CREATION_DATE":"2026-05-16T19:46:19","ORIGINATOR":"18 SPCS","OBJECT_NAME":"DELTA 1 R\/B","OBJECT_ID":"1962-068B","CENTER_NAME":"EARTH","REF_FRAME":"TEME","TIME_SYSTEM":"UTC","MEAN_ELEMENT_THEORY":"SGP4","EPOCH":"2026-05-16T09:02:43.007424","MEAN_MOTION":"7.79273567","ECCENTRICITY":"0.28296730","INCLINATION":"47.5252","RA_OF_ASC_NODE":"38.5954","ARG_OF_PERICENTER":"240.3578","MEAN_ANOMALY":"88.6070","EPHEMERIS_TYPE":"0","CLASSIFICATION_TYPE":"U","NORAD_CAT_ID":"515","ELEMENT_SET_NO":"999","REV_AT_EPOCH":"80537","BSTAR":"0.00000000000000","MEAN_MOTION_DOT":"-0.00000015","MEAN_MOTION_DDOT":"0.0000000000000","SEMIMAJOR_AXIS":"10746.702","PERIOD":"184.787","APOAPSIS":"7409.532","PERIAPSIS":"1327.602","OBJECT_TYPE":"ROCKET BODY","RCS_SIZE":"MEDIUM","COUNTRY_CODE":"US","LAUNCH_DATE":"1962-12-13","SITE":"AFETR","DECAY_DATE":null,"FILE":"5196659","GP_ID":"323492694","TLE_LINE0":"0 DELTA 1 R\/B","TLE_LINE1":"1   515U 62068B   26136.37688666 -.00000015  00000-0  00000+0 0  9997","TLE_LINE2":"2   515  47.5252  38.5954 2829673 240.3578  88.6070  7.79273567805373"},{"CCSDS_OMM_VERS":"3.0","COMMENT":"GENERATED VIA SPACE-TRACK.ORG API","CREATION_DATE":"2026-05-16T17:43:08","ORIGINATOR":"18 SPCS","OBJECT_NAME":"THOR ABLESTAR DEB","OBJECT_ID":"1961-015FT","CENTER_NAME":"EARTH","REF_FRAME":"TEME","TIME_SYSTEM":"UTC","MEAN_ELEMENT_THEORY":"SGP4","EPOCH":"2026-05-16T08:08:55.303008","MEAN_MOTION":"13.92791068","ECCENTRICITY":"0.00780488","INCLINATION":"65.9946","RA_OF_ASC_NODE":"227.5983","ARG_OF_PERICENTER":"164.5951","MEAN_ANOMALY":"195.7524","EPHEMERIS_TYPE":"0","CLASSIFICATION_TYPE":"U","NORAD_CAT_ID":"516","ELEMENT_SET_NO":"999","REV_AT_EPOCH":"28395","BSTAR":"0.00008059568100","MEAN_MOTION_DOT":"0.00000024","MEAN_MOTION_DDOT":"0.0000000000000","SEMIMAJOR_AXIS":"7297.003","PERIOD":"103.390","APOAPSIS":"975.820","PERIAPSIS":"861.916","OBJECT_TYPE":"DEBRIS","RCS_SIZE":"MEDIUM","COUNTRY_CODE":"US","LAUNCH_DATE":"1961-06-29","SITE":"AFETR","DECAY_DATE":null,"FILE":"5196581","GP_ID":"323457696","TLE_LINE0":"0 THOR ABLESTAR DEB","TLE_LINE1":"1 00516U 61015FT  26136.33952897  .00000024  00000-0  80596-4 0  9997","TLE_LINE2":"2 00516  65.9946 227.5983 0078049 164.5951 195.7524 13.92791068283954"}]